[{"OBJECT_NAME":"GAOFEN-9 03","OBJECT_ID":"2020-039A","EPOCH":"2026-03-09T21:55:15.121344","MEAN_MOTION":15.30529116,"ECCENTRICITY":0.0013094,"INCLINATION":97.5219,"RA_OF_ASC_NODE":201.2158,"ARG_OF_PERICENTER":77.4533,"MEAN_ANOMALY":282.8172,"EPHEMERIS_TYPE":0,"CLASSIFICATION_TYPE":"U","NORAD_CAT_ID":45794,"ELEMENT_SET_NO":999,"REV_AT_EPOCH":31856,"BSTAR":0.00039258132,"MEAN_MOTION_DOT":0.00011544,"MEAN_MOTION_DDOT":0},{"OBJECT_NAME":"STARLINK-30394","OBJECT_ID":"2023-138C","EPOCH":"2026-03-09T22:00:01.999584","MEAN_MOTION":15.27534692,"ECCENTRICITY":0.00016167,"INCLINATION":43.0011,"RA_OF_ASC_NODE":232.8109,"ARG_OF_PERICENTER":278.3668,"MEAN_ANOMALY":98.2422,"EPHEMERIS_TYPE":0,"CLASSIFICATION_TYPE":"U","NORAD_CAT_ID":57810,"ELEMENT_SET_NO":999,"REV_AT_EPOCH":573,"BSTAR":0.0027116477,"MEAN_MOTION_DOT":0.00075015,"MEAN_MOTION_DDOT":0}]
